[{"OBJECT_NAME":"ONEWEB-0629","OBJECT_ID":"2023-004AG","EPOCH":"2026-05-03T05:38:43.363104","MEAN_MOTION":13.17648404,"ECCENTRICITY":0.0002084,"INCLINATION":87.9176,"RA_OF_ASC_NODE":14.8052,"ARG_OF_PERICENTER":86.5824,"MEAN_ANOMALY":273.5546,"EPHEMERIS_TYPE":0,"CLASSIFICATION_TYPE":"U","NORAD_CAT_ID":55170,"ELEMENT_SET_NO":999,"REV_AT_EPOCH":16166,"BSTAR":8.529900000000001e-05,"MEAN_MOTION_DOT":4.6e-07,"MEAN_MOTION_DDOT":0.0},{"OBJECT_NAME":"ONEWEB-0631","OBJECT_ID":"2023-004AH","EPOCH":"2026-05-03T02:33:40.507776","MEAN_MOTION":13.18667238,"ECCENTRICITY":0.0001228,"INCLINATION":87.9197,"RA_OF_ASC_NODE":344.4039,"ARG_OF_PERICENTER":86.0122,"MEAN_ANOMALY":274.1151,"EPHEMERIS_TYPE":0,"CLASSIFICATION_TYPE":"U","NORAD_CAT_ID":55171,"ELEMENT_SET_NO":999,"REV_AT_EPOCH":16373,"BSTAR":0.008092700000000001,"MEAN_MOTION_DOT":3.204e-05,"MEAN_MOTION_DDOT":0.0},{"OBJECT_NAME":"ONEWEB-0709","OBJECT_ID":"2023-004AJ","EPOCH":"2026-05-03T04:32:31.884288","MEAN_MOTION":13.11416809,"ECCENTRICITY":0.0001489,"INCLINATION":87.8922,"RA_OF_ASC_NODE":30.0281,"ARG_OF_PERICENTER":49.5821,"MEAN_ANOMALY":310.5436,"EPHEMERIS_TYPE":0,"CLASSIFICATION_TYPE":"U","NORAD_CAT_ID":55172,"ELEMENT_SET_NO":999,"REV_AT_EPOCH":15997,"BSTAR":0.0017302,"MEAN_MOTION_DOT":6.26e-06,"MEAN_MOTION_DDOT":0.0},{"OBJECT_NAME":"ONEWEB-0710","OBJECT_ID":"2023-004AK","EPOCH":"2026-05-03T05:59:22.970688","MEAN_MOTION":13.1764988,"ECCENTRICITY":0.000171,"INCLINATION":87.9177,"RA_OF_ASC_NODE":14.7973,"ARG_OF_PERICENTER":85.8701,"MEAN_ANOMALY":274.2626,"EPHEMERIS_TYPE":0,"CLASSIFICATION_TYPE":"U","NORAD_CAT_ID":55173,"ELEMENT_SET_NO":999,"REV_AT_EPOCH":16166,"BSTAR":0.00011027000000000001,"MEAN_MOTION_DOT":5.6e-07,"MEAN_MOTION_DDOT":0.0},{"OBJECT_NAME":"ONEWEB-0711","OBJECT_ID":"2023-004AL","EPOCH":"2026-05-03T05:40:51.727584","MEAN_MOTION":13.11419612,"ECCENTRICITY":0.0001661,"INCLINATION":87.8924,"RA_OF_ASC_NODE":30.0051,"ARG_OF_PERICENTER":103.5114,"MEAN_ANOMALY":256.6199,"EPHEMERIS_TYPE":0,"CLASSIFICATION_TYPE":"U","NORAD_CAT_ID":55174,"ELEMENT_SET_NO":999,"REV_AT_EPOCH":15994,"BSTAR":-0.0008088300000000001,"MEAN_MOTION_DOT":-2.74e-06,"MEAN_MOTION_DDOT":0.0},{"OBJECT_NAME":"ONEWEB-0713","OBJECT_ID":"2023-004AM","EPOCH":"2026-05-03T04:17:52.238976","MEAN_MOTION":13.11419227,"ECCENTRICITY":0.0001695,"INCLINATION":87.8929,"RA_OF_ASC_NODE":30.0168,"ARG_OF_PERICENTER":91.7807,"MEAN_ANOMALY":268.3515,"EPHEMERIS_TYPE":0,"CLASSIFICATION_TYPE":"U","NORAD_CAT_ID":55175,"ELEMENT_SET_NO":999,"REV_AT_EPOCH":15992,"BSTAR":0.0011948,"MEAN_MOTION_DOT":4.36e-06,"MEAN_MOTION_DDOT":0.0},{"OBJECT_NAME":"ONEWEB-0715","OBJECT_ID":"2023-004AN","EPOCH":"2026-05-03T06:00:24.496992","MEAN_MOTION":13.11420048,"ECCENTRICITY":0.0001224,"INCLINATION":87.8934,"RA_OF_ASC_NODE":30.0028,"ARG_OF_PERICENTER":63.666,"MEAN_ANOMALY":296.4594,"EPHEMERIS_TYPE":0,"CLASSIFICATION_TYPE":"U","NORAD_CAT_ID":55176,"ELEMENT_SET_NO":999,"REV_AT_EPOCH":15997,"BSTAR":0.00042108,"MEAN_MOTION_DOT":1.62e-06,"MEAN_MOTION_DDOT":0.0},{"OBJECT_NAME":"ONEWEB-0716","OBJECT_ID":"2023-004AP","EPOCH":"2026-05-03T05:49:39.666144","MEAN_MOTION":13.17649527,"ECCENTRICITY":0.000201,"INCLINATION":87.918,"RA_OF_ASC_NODE":14.8005,"ARG_OF_PERICENTER":76.8886,"MEAN_ANOMALY":283.247,"EPHEMERIS_TYPE":0,"CLASSIFICATION_TYPE":"U","NORAD_CAT_ID":55177,"ELEMENT_SET_NO":999,"REV_AT_EPOCH":16166,"BSTAR":9.456e-05,"MEAN_MOTION_DOT":5e-07,"MEAN_MOTION_DDOT":0.0},{"OBJECT_NAME":"ONEWEB-0717","OBJECT_ID":"2023-004AQ","EPOCH":"2026-05-03T05:25:21.844992","MEAN_MOTION":13.1764945,"ECCENTRICITY":0.0001559,"INCLINATION":87.9185,"RA_OF_ASC_NODE":14.7878,"ARG_OF_PERICENTER":102.6132,"MEAN_ANOMALY":257.5174,"EPHEMERIS_TYPE":0,"CLASSIFICATION_TYPE":"U","NORAD_CAT_ID":55178,"ELEMENT_SET_NO":999,"REV_AT_EPOCH":16171,"BSTAR":4.6488000000000006e-05,"MEAN_MOTION_DOT":3.1e-07,"MEAN_MOTION_DDOT":0.0},{"OBJECT_NAME":"ONEWEB-0719","OBJECT_ID":"2023-004AR","EPOCH":"2026-05-03T05:39:56.498976","MEAN_MOTION":13.17649463,"ECCENTRICITY":0.0002013,"INCLINATION":87.9186,"RA_OF_ASC_NODE":14.7668,"ARG_OF_PERICENTER":81.4823,"MEAN_ANOMALY":278.6537,"EPHEMERIS_TYPE":0,"CLASSIFICATION_TYPE":"U","NORAD_CAT_ID":55179,"ELEMENT_SET_NO":999,"REV_AT_EPOCH":16166,"BSTAR":1.6962e-05,"MEAN_MOTION_DOT":1.9e-07,"MEAN_MOTION_DDOT":0.0},{"OBJECT_NAME":"ONEWEB-0530","OBJECT_ID":"2023-029A","EPOCH":"2026-05-03T05:49:05.193408","MEAN_MOTION":13.2077355,"ECCENTRICITY":0.0002006,"INCLINATION":87.9138,"RA_OF_ASC_NODE":283.4408,"ARG_OF_PERICENTER":109.3797,"MEAN_ANOMALY":250.7554,"EPHEMERIS_TYPE":0,"CLASSIFICATION_TYPE":"U","NORAD_CAT_ID":55796,"ELEMENT_SET_NO":999,"REV_AT_EPOCH":15521,"BSTAR":0.00031528000000000003,"MEAN_MOTION_DOT":1.41e-06,"MEAN_MOTION_DDOT":0.0},{"OBJECT_NAME":"ONEWEB-0534","OBJECT_ID":"2023-029B","EPOCH":"2026-05-03T03:41:49.354080","MEAN_MOTION":13.20770817,"ECCENTRICITY":0.0001906,"INCLINATION":87.9139,"RA_OF_ASC_NODE":283.4577,"ARG_OF_PERICENTER":93.1314,"MEAN_ANOMALY":267.0037,"EPHEMERIS_TYPE":0,"CLASSIFICATION_TYPE":"U","NORAD_CAT_ID":55797,"ELEMENT_SET_NO":999,"REV_AT_EPOCH":15520,"BSTAR":0.0002701,"MEAN_MOTION_DOT":1.23e-06,"MEAN_MOTION_DDOT":0.0},{"OBJECT_NAME":"ONEWEB-0556","OBJECT_ID":"2023-029C","EPOCH":"2026-05-03T00:12:45.676800","MEAN_MOTION":13.20772227,"ECCENTRICITY":0.000265,"INCLINATION":87.9137,"RA_OF_ASC_NODE":283.4875,"ARG_OF_PERICENTER":95.7457,"MEAN_ANOMALY":264.3979,"EPHEMERIS_TYPE":0,"CLASSIFICATION_TYPE":"U","NORAD_CAT_ID":55798,"ELEMENT_SET_NO":999,"REV_AT_EPOCH":15518,"BSTAR":0.00015146000000000002,"MEAN_MOTION_DOT":7.5e-07,"MEAN_MOTION_DDOT":0.0},{"OBJECT_NAME":"ONEWEB-0562","OBJECT_ID":"2023-029D","EPOCH":"2026-05-03T03:32:43.919520","MEAN_MOTION":13.20770438,"ECCENTRICITY":0.0002505,"INCLINATION":87.9137,"RA_OF_ASC_NODE":283.4404,"ARG_OF_PERICENTER":111.0292,"MEAN_ANOMALY":249.111,"EPHEMERIS_TYPE":0,"CLASSIFICATION_TYPE":"U","NORAD_CAT_ID":55799,"ELEMENT_SET_NO":999,"REV_AT_EPOCH":15520,"BSTAR":8.2199e-05,"MEAN_MOTION_DOT":4.6e-07,"MEAN_MOTION_DDOT":0.0},{"OBJECT_NAME":"ONEWEB-0563","OBJECT_ID":"2023-029E","EPOCH":"2026-05-02T23:45:28.174752","MEAN_MOTION":13.207726,"ECCENTRICITY":0.0001966,"INCLINATION":87.9137,"RA_OF_ASC_NODE":283.5023,"ARG_OF_PERICENTER":90.6779,"MEAN_ANOMALY":269.4579,"EPHEMERIS_TYPE":0,"CLASSIFICATION_TYPE":"U","NORAD_CAT_ID":55800,"ELEMENT_SET_NO":999,"REV_AT_EPOCH":15517,"BSTAR":-0.00010741,"MEAN_MOTION_DOT":-3.1e-07,"MEAN_MOTION_DDOT":0.0},{"OBJECT_NAME":"ONEWEB-0564","OBJECT_ID":"2023-029F","EPOCH":"2026-05-03T05:03:37.894464","MEAN_MOTION":13.20770011,"ECCENTRICITY":0.000202,"INCLINATION":87.9139,"RA_OF_ASC_NODE":283.4309,"ARG_OF_PERICENTER":105.8212,"MEAN_ANOMALY":254.3144,"EPHEMERIS_TYPE":0,"CLASSIFICATION_TYPE":"U","NORAD_CAT_ID":55801,"ELEMENT_SET_NO":999,"REV_AT_EPOCH":15521,"BSTAR":-2.8649000000000003e-05,"MEAN_MOTION_DOT":1e-08,"MEAN_MOTION_DDOT":0.0}]