ONEWEB-0629             
1 55170U 23004AG  26123.23522411  .00000046  00000+0  85299-4 0  9997
2 55170  87.9176  14.8052 0002084  86.5824 273.5546 13.17648404161665
ONEWEB-0631             
1 55171U 23004AH  26123.10671884  .00003204  00000+0  80927-2 0  9993
2 55171  87.9197 344.4039 0001228  86.0122 274.1151 13.18667238163737
ONEWEB-0709             
1 55172U 23004AJ  26123.18925792  .00000626  00000+0  17302-2 0  9994
2 55172  87.8922  30.0281 0001489  49.5821 310.5436 13.11416809159970
ONEWEB-0710             
1 55173U 23004AK  26123.24957142  .00000056  00000+0  11027-3 0  9992
2 55173  87.9177  14.7973 0001710  85.8701 274.2626 13.17649880161667
ONEWEB-0711             
1 55174U 23004AL  26123.23670981 -.00000274  00000+0 -80883-3 0  9995
2 55174  87.8924  30.0051 0001661 103.5114 256.6199 13.11419612159945
ONEWEB-0713             
1 55175U 23004AM  26123.17907684  .00000436  00000+0  11948-2 0  9995
2 55175  87.8929  30.0168 0001695  91.7807 268.3515 13.11419227159926
ONEWEB-0715             
1 55176U 23004AN  26123.25028353  .00000162  00000+0  42108-3 0  9991
2 55176  87.8934  30.0028 0001224  63.6660 296.4594 13.11420048159978
ONEWEB-0716             
1 55177U 23004AP  26123.24282021  .00000050  00000+0  94560-4 0  9991
2 55177  87.9180  14.8005 0002010  76.8886 283.2470 13.17649527161665
ONEWEB-0717             
1 55178U 23004AQ  26123.22594728  .00000031  00000+0  46488-4 0  9995
2 55178  87.9185  14.7878 0001559 102.6132 257.5174 13.17649450161713
ONEWEB-0719             
1 55179U 23004AR  26123.23607059  .00000019  00000+0  16962-4 0  9999
2 55179  87.9186  14.7668 0002013  81.4823 278.6537 13.17649463161664
ONEWEB-0530             
1 55796U 23029A   26123.24242122  .00000141  00000+0  31528-3 0  9998
2 55796  87.9138 283.4408 0002006 109.3797 250.7554 13.20773550155218
ONEWEB-0534             
1 55797U 23029B   26123.15404345  .00000123  00000+0  27010-3 0  9997
2 55797  87.9139 283.4577 0001906  93.1314 267.0037 13.20770817155209
ONEWEB-0556             
1 55798U 23029C   26123.00886200  .00000075  00000+0  15146-3 0  9999
2 55798  87.9137 283.4875 0002650  95.7457 264.3979 13.20772227155181
ONEWEB-0562             
1 55799U 23029D   26123.14773055  .00000046  00000+0  82199-4 0  9999
2 55799  87.9137 283.4404 0002505 111.0292 249.1110 13.20770438155201
ONEWEB-0563             
1 55800U 23029E   26122.98990943 -.00000031  00000+0 -10741-3 0  9999
2 55800  87.9137 283.5023 0001966  90.6779 269.4579 13.20772600155177
ONEWEB-0564             
1 55801U 23029F   26123.21085526  .00000001  00000+0 -28649-4 0  9992
2 55801  87.9139 283.4309 0002020 105.8212 254.3144 13.20770011155219
